OBJECT_NAME,OBJECT_ID,EPOCH,MEAN_MOTION,ECCENTRICITY,INCLINATION,RA_OF_ASC_NODE,ARG_OF_PERICENTER,MEAN_ANOMALY,EPHEMERIS_TYPE,CLASSIFICATION_TYPE,NORAD_CAT_ID,ELEMENT_SET_NO,REV_AT_EPOCH,BSTAR,MEAN_MOTION_DOT,MEAN_MOTION_DDOT
OSCAR 7 (AO-7),1974-089B,2026-06-15T13:27:51.163776,12.53698117,.001255,101.9901,179.7907,133.1072,351.4237,0,U,7530,999,36031,.83749835E-4,-.33E-6,0
PHASE 3B (AO-10),1983-058B,2026-06-15T10:15:11.279232,2.05868643,.60114563,25.9108,219.8563,115.1838,317.1369,0,U,14129,999,29545,0,.161E-5,0
UOSAT 2 (UO-11),1984-021B,2026-06-15T09:49:08.557248,14.90779245,.000747,97.8057,132.0037,178.4123,181.7120,0,U,14781,999,25686,.10828219E-3,.1009E-4,0
LUSAT (LO-19),1990-005G,2026-06-15T12:10:49.183680,14.34122746,.00110253,98.8851,188.2668,206.2341,153.8286,0,U,20442,999,90215,.51149758E-4,.96E-6,0
EYESAT A (AO-27),1993-061C,2026-06-15T04:21:52.250400,14.30941747,.00095218,98.6881,233.5961,104.9010,255.3227,0,U,22825,999,70671,.48753047E-4,.84E-6,0
ITAMSAT (IO-26),1993-061D,2026-06-15T03:53:05.177472,14.31368614,.00100916,98.6828,233.4933,90.3104,269.9235,0,U,22826,999,70702,.48144623E-4,.83E-6,0
RADIO ROSTO (RS15),1994-085A,2026-06-15T14:35:54.230784,11.27583472,.01559033,64.8179,305.7698,4.1682,356.0502,0,U,23439,999,29572,-.29519686E-3,-.53E-6,0
JAS-2 (FO-29),1996-046B,2026-06-15T12:52:49.946016,13.53274267,.03508814,98.5240,15.6350,100.7038,263.3808,0,U,24278,999,47294,.45333863E-4,.13E-6,0
TECHSAT 1B (GO-32),1998-043D,2026-06-15T14:08:34.379520,14.24428093,.00009714,99.0067,159.3076,166.4736,193.6468,0,U,25397,999,45110,.32965622E-4,.3E-6,0
ISS (ZARYA),1998-067A,2026-06-15T12:17:49.455744,15.49243792,.000485,51.6337,308.3821,189.0196,171.0706,0,U,25544,999,57149,.14626019E-3,.7685E-4,0
PCSAT (NO-44),2001-043C,2026-06-15T14:56:42.677952,14.31955610,.00060764,67.0507,248.3182,264.5919,95.4489,0,U,26931,999,29022,.62366377E-4,.84E-6,0
SAUDISAT 1C (SO-50),2002-058C,2026-06-15T08:01:51.375360,14.83043230,.00753069,64.5510,134.7172,262.8143,96.4397,0,U,27607,999,26418,.11894541E-3,.861E-5,0
CUTE-1 (CO-55),2003-031E,2026-06-15T11:48:04.526784,14.24334794,.00094208,98.6736,175.0719,182.9125,177.2000,0,U,27844,999,19143,.1216713E-3,.237E-5,0
CUBESAT XI-IV (CO-57),2003-031J,2026-06-15T11:30:13.793184,14.23619986,.00089083,98.6767,174.7737,202.2653,157.8140,0,U,27848,999,19113,.10657517E-3,.199E-5,0
MOZHAETS 4 (RS22),2003-042A,2026-06-15T15:43:41.335392,14.73465436,.00099578,98.3461,350.9709,275.3429,172.8997,0,U,27939,999,21532,.13306522E-3,.81E-5,0
CUBESAT XI-V,2005-043F,2026-06-15T08:44:27.885696,14.72627055,.00135225,98.2983,321.9478,206.7180,153.3331,0,U,28895,999,10148,.19691438E-3,.1202E-4,0
CUTE-1.7+APD II (CO-65),2008-021C,2026-06-15T14:11:45.679488,15.09439257,.00099753,97.8271,147.9768,44.1299,316.0723,0,U,32785,999,98495,.24444619E-3,.3848E-4,0
SEEDS II (CO-66),2008-021J,2026-06-15T13:38:58.094880,15.32704207,.00012974,97.7511,164.3889,9.9046,350.2220,0,U,32791,999,98704,.48345218E-3,.15199E-3,0
YUBILEINY (RS30),2008-025A,2026-06-15T13:39:54.387072,12.43179648,.00189192,82.5039,356.4473,317.5762,42.3854,0,U,32953,999,81949,.60035368E-3,.93E-6,0
KKS-1 (KISEKI),2009-002H,2026-06-15T13:40:43.011264,14.83120405,.0006614,98.1190,88.9865,302.1510,57.9061,0,U,33499,999,93595,.14942181E-3,.1162E-4,0
SWISSCUBE,2009-051B,2026-06-15T06:04:16.754016,14.62478329,.0005844,98.4038,74.1075,209.7614,150.3255,0,U,35932,999,88887,.17592E-3,.842E-5,0
BEESAT-1,2009-051C,2026-06-15T11:12:08.059680,14.61718018,.00041334,98.3966,73.9642,223.5476,136.5399,0,U,35933,999,88893,.15090702E-3,.703E-5,0
ITUPSAT1,2009-051E,2026-06-15T10:56:50.830368,14.60438270,.00061978,98.4051,73.1472,240.3357,119.7226,0,U,35935,999,88848,.14088129E-3,.634E-5,0
XIWANG-1 (HOPE-1),2009-072B,2026-06-15T13:43:32.276640,13.16437666,.00068535,100.4024,120.4297,235.6610,124.3855,0,U,36122,999,79279,-.95495482E-3,-.409E-5,0
O/OREOS (USA 219),2010-062C,2026-06-15T04:29:21.983136,14.93736891,.00125044,71.9714,84.8700,67.4228,292.8264,0,U,37224,999,11634,.19439425E-3,.2E-4,0
JUGNU,2011-058B,2026-06-15T03:05:53.191104,14.13776231,.00186275,19.9618,320.9329,53.5996,113.0994,0,U,37839,999,75873,.69103196E-4,.399E-5,0
SRMSAT,2011-058D,2026-06-15T02:14:35.216160,14.11575160,.00118389,19.9720,72.1399,180.5594,207.7984,0,U,37841,999,75752,.49298812E-4,.356E-5,0
STRAND-1,2013-009E,2026-06-15T10:54:46.658016,14.37162360,.00076477,98.3921,346.7318,231.1589,128.8916,0,U,39090,999,69681,.88442861E-4,.22E-5,0
ZACUBE-1 (TSHEPISOSAT),2013-066B,2026-06-15T09:46:58.246176,15.01179836,.00406046,97.8082,128.7351,253.8926,105.7825,0,U,39417,999,68046,.20510591E-3,.2611E-4,0
GOMX-1,2013-066Q,2026-06-15T14:52:32.144736,14.69456470,.01301609,97.6479,7.1816,82.5196,279.0777,0,U,39430,999,66968,.29130131E-3,.1915E-4,0
